[{"OBJECT_NAME":"STARLINK-31008","OBJECT_ID":"2023-203U","EPOCH":"2026-03-09T09:39:41.733504","MEAN_MOTION":15.27575423,"ECCENTRICITY":0.00015317,"INCLINATION":43.0042,"RA_OF_ASC_NODE":69.0447,"ARG_OF_PERICENTER":259.8871,"MEAN_ANOMALY":100.1808,"EPHEMERIS_TYPE":0,"CLASSIFICATION_TYPE":"U","NORAD_CAT_ID":58636,"ELEMENT_SET_NO":999,"REV_AT_EPOCH":12474,"BSTAR":-4.4708042e-5,"MEAN_MOTION_DOT":-1.492e-5,"MEAN_MOTION_DDOT":0},{"OBJECT_NAME":"ION SCV-017","OBJECT_ID":"2025-052W","EPOCH":"2026-03-09T17:11:44.577024","MEAN_MOTION":15.26881798,"ECCENTRICITY":0.0023746,"INCLINATION":97.4016,"RA_OF_ASC_NODE":324.7516,"ARG_OF_PERICENTER":44.9875,"MEAN_ANOMALY":315.3282,"EPHEMERIS_TYPE":0,"CLASSIFICATION_TYPE":"U","NORAD_CAT_ID":63230,"ELEMENT_SET_NO":999,"REV_AT_EPOCH":5485,"BSTAR":0.00024539061,"MEAN_MOTION_DOT":6.457e-5,"MEAN_MOTION_DDOT":0}]
